NORAD_CAT_ID,OBJECT_NAME,OBJECT_TYPE,EPOCH,MEAN_MOTION,ECCENTRICITY,INCLINATION,RA_OF_ASC_NODE,ARG_OF_PERICENTER,MEAN_ANOMALY,BSTAR,MEAN_MOTION_DOT,MEAN_MOTION_DDOT,TLE_LINE0,TLE_LINE1,TLE_LINE2,SEMIMAJOR_AXIS,PERIOD,APOGEE,PERIGEE,DECAYED
55407.0,STARLINK-5019,PAYLOAD,2023-04-08 12:29:33,15.69938227,0.0003455,70.0002,261.7817,257.3525,102.7284,5.7853e-05,6.753e-05,0.0,0 STARLINK-5019,1 55407U 23014S   23098.52052109  .00006753  00000-0  57853-4 0  9990,2 55407  70.0002 261.7817 0003455 257.3525 102.7284 15.69938227 10692,6737.211,91.723,361.403,356.748,0.0
55407.0,STARLINK-5019,PAYLOAD,2023-04-08 17:04:46,15.69966298,0.0003312,69.9998,261.244,262.1125,97.9695,0.00010613,0.0001259,0.0,0 STARLINK-5019,1 55407U 23014S   23098.71165508  .00012590  00000-0  10613-3 0  9997,2 55407  69.9998 261.2440 0003312 262.1125  97.9695 15.69966298 10726,6737.13,91.722,361.227,356.764,0.0
55407.0,STARLINK-5019,PAYLOAD,2023-04-09 03:47:04,15.69933333,0.0003029,70.0001,259.9899,262.4607,97.6244,3.5595e-05,4.071e-05,0.0,0 STARLINK-5019,1 55407U 23014S   23099.15768662  .00004071  00000-0  35595-4 0  9998,2 55407  70.0001 259.9899 0003029 262.4607  97.6244 15.69933333 10797,6737.225,91.724,361.13,357.049,0.0
55407.0,STARLINK-5019,PAYLOAD,2023-04-09 11:25:49,15.69931888,0.0003044,69.9983,259.0945,262.1928,97.8922,2.732e-05,3.074e-05,0.0,0 STARLINK-5019,1 55407U 23014S   23099.47626585  .00003074  00000-0  27320-4 0  9999,2 55407  69.9983 259.0945 0003044 262.1928  97.8922 15.69931888 11784,6737.229,91.724,361.145,357.043,0.0
55407.0,STARLINK-5019,PAYLOAD,2023-04-09 12:57:34,15.69929899,0.0003078,69.9979,258.9152,262.4266,97.658,2.4603e-05,2.747e-05,0.0,0 STARLINK-5019,1 55407U 23014S   23099.53998375  .00002747  00000-0  24603-4 0  9992,2 55407  69.9979 258.9152 0003078 262.4266  97.6580 15.69929899 11790,6737.235,91.724,361.173,357.026,0.0
55407.0,STARLINK-5019,PAYLOAD,2023-04-10 04:15:07,15.69907634,0.0003452,69.9979,257.1234,263.4354,96.6449,2.0647e-05,2.269e-05,0.0,0 STARLINK-5019,1 55407U 23014S   23100.17716497  .00002269  00000-0  20647-4 0  9991,2 55407  69.9979 257.1234 0003452 263.4354  96.6449 15.69907634 10950,6737.298,91.725,361.489,356.838,0.0
55407.0,STARLINK-5019,PAYLOAD,2023-04-10 10:22:06,15.69937499,0.0003809,69.997,256.4079,259.4312,100.6454,-1.9029e-05,-2.502e-05,0.0,0 STARLINK-5019,1 55407U 23014S   23100.43202380 -.00002502  00000-0 -19029-4 0  9995,2 55407  69.9970 256.4079 0003809 259.4312 100.6454 15.69937499 10993,6737.213,91.723,361.644,356.512,0.0
55407.0,STARLINK-5019,PAYLOAD,2023-04-10 16:29:05,15.6995259,0.0003441,69.997,255.6887,254.7388,105.3428,1.7859e-06,2e-08,0.0,0 STARLINK-5019,1 55407U 23014S   23100.68687360  .00000002  00000-0  17859-5 0  9998,2 55407  69.9970 255.6887 0003441 254.7388 105.3428 15.69952590 11975,6737.17,91.723,361.353,356.716,0.0
55407.0,STARLINK-5019,PAYLOAD,2023-04-11 03:11:22,15.69932435,0.0004091,69.9981,254.4363,266.3602,93.7126,-5.7054e-06,-9e-06,0.0,0 STARLINK-5019,1 55407U 23014S   23101.13289948 -.00000900  00000-0 -57054-5 0  9999,2 55407  69.9981 254.4363 0004091 266.3602  93.7126 15.69932435 11109,6737.227,91.724,361.849,356.336,0.0
55407.0,STARLINK-5019,PAYLOAD,2023-04-11 09:18:24,15.69915599,0.0003416,69.9993,253.7205,262.8667,97.2141,-8.8173e-06,-1.272e-05,0.0,0 STARLINK-5019,1 55407U 23014S   23101.38777901 -.00001272  00000-0 -88173-5 0  9996,2 55407  69.9993 253.7205 0003416 262.8667  97.2141 15.69915599 11143,6737.275,91.725,361.442,356.839,0.0
55407.0,STARLINK-5019,PAYLOAD,2023-04-11 12:21:54,15.69917695,0.000346,69.9992,253.3623,263.349,96.7312,-6.12e-06,-9.48e-06,0.0,0 STARLINK-5019,1 55407U 23014S   23101.51521117 -.00000948  00000-0 -61200-5 0  9998,2 55407  69.9992 253.3623 0003460 263.3490  96.7312 15.69917695 12101,6737.269,91.725,361.466,356.803,0.0
55407.0,STARLINK-5019,PAYLOAD,2023-04-11 20:00:38,15.69931857,0.0003256,69.9974,252.4658,269.174,90.9082,1.3865e-05,1.455e-05,0.0,0 STARLINK-5019,1 55407U 23014S   23101.83378125  .00001455  00000-0  13865-4 0  9997,2 55407  69.9974 252.4658 0003256 269.1740  90.9082 15.69931857 12155,6737.229,91.724,361.288,356.9,0.0
55407.0,STARLINK-5019,PAYLOAD,2023-04-12 03:39:25,15.69917879,0.0003805,69.9963,251.5709,271.4454,88.6306,5.1226e-06,4.03e-06,0.0,0 STARLINK-5019,1 55407U 23014S   23102.15237381  .00000403  00000-0  51226-5 0  9997,2 55407  69.9963 251.5709 0003805 271.4454  88.6306 15.69917879 11260,6737.269,91.725,361.697,356.57,0.0
55407.0,STARLINK-5019,PAYLOAD,2023-04-12 11:18:10,15.69922156,0.0003701,69.9992,250.6759,274.0994,85.9779,8.8525e-06,8.52e-06,0.0,0 STARLINK-5019,1 55407U 23014S   23102.47095528  .00000852  00000-0  88525-5 0  9997,2 55407  69.9992 250.6759 0003701 274.0994  85.9779 15.69922156 12258,6737.257,91.724,361.615,356.628,0.0
55407.0,STARLINK-5019,PAYLOAD,2023-04-13 10:14:27,15.69915674,0.0003531,69.9984,247.9877,271.9664,88.1127,7.2708e-06,6.61e-06,0.0,0 STARLINK-5019,1 55407U 23014S   23103.42671146  .00000661  00000-0  72708-5 0  9993,2 55407  69.9984 247.9877 0003531 271.9664  88.1127 15.69915674 12406,6737.275,91.725,361.519,356.761,0.0
55407.0,STARLINK-5019,PAYLOAD,2023-04-13 16:21:27,15.69926962,0.0003632,69.9989,247.2724,269.8302,90.2477,1.679e-05,1.807e-05,0.0,0 STARLINK-5019,1 55407U 23014S   23103.68156929  .00001807  00000-0  16790-4 0  9999,2 55407  69.9989 247.2724 0003632 269.8302  90.2477 15.69926962 11506,6737.243,91.724,361.555,356.661,0.0
55407.0,STARLINK-5019,PAYLOAD,2023-04-14 12:14:14,15.69928688,0.0003498,69.9971,244.9415,270.4675,89.6119,3.2006e-06,1.72e-06,0.0,0 STARLINK-5019,1 55407U 23014S   23104.50988807  .00000172  00000-0  32006-5 0  9992,2 55407  69.9971 244.9415 0003498 270.4675  89.6119 15.69928688 12579,6737.238,91.724,361.46,356.746,0.0
55407.0,STARLINK-5019,PAYLOAD,2023-04-15 12:42:16,15.69933525,0.0002946,69.9993,242.076,269.73,90.3558,2.5944e-05,2.909e-05,0.0,0 STARLINK-5019,1 55407U 23014S   23105.52935215  .00002909  00000-0  25944-4 0  9992,2 55407  69.9993 242.0760 0002946 269.7300  90.3558 15.69933525 11793,6737.224,91.724,361.074,357.104,0.0
55407.0,STARLINK-5019,PAYLOAD,2023-04-15 18:49:17,15.69926266,0.0002969,69.9977,241.3584,294.2786,65.8099,1.5429e-05,1.643e-05,0.0,0 STARLINK-5019,1 55407U 23014S   23105.78422619  .00001643  00000-0  15429-4 0  9990,2 55407  69.9977 241.3584 0002969 294.2786  65.8099 15.69926266 11833,6737.245,91.724,361.11,357.11,0.0
55407.0,STARLINK-5019,PAYLOAD,2023-04-16 11:38:34,15.69910644,0.0003633,69.9984,239.3887,275.168,84.9101,-8.8958e-06,-1.282e-05,0.0,0 STARLINK-5019,1 55407U 23014S   23106.48512108 -.00001282  00000-0 -88958-5 0  9990,2 55407  69.9984 239.3887 0003633 275.1680  84.9101 15.69910644 11945,6737.29,91.725,361.602,356.707,0.0
55407.0,STARLINK-5019,PAYLOAD,2023-04-16 17:45:33,15.69927597,0.0002866,69.9999,238.6735,266.627,93.4598,5.8742e-07,-1.42e-06,0.0,0 STARLINK-5019,1 55407U 23014S   23106.73997568 -.00000142  00000-0  58742-6 0  9997,2 55407  69.9999 238.6735 0002866 266.6270  93.4598 15.69927597 11986,6737.241,91.724,361.037,357.175,0.0
55407.0,STARLINK-5019,PAYLOAD,2023-04-17 12:06:35,15.69930797,0.0002268,70.0005,236.5232,263.2924,96.8013,-1.8675e-06,-4.37e-06,0.0,0 STARLINK-5019,1 55407U 23014S   23107.50457805 -.00000437  00000-0 -18675-5 0  9996,2 55407  70.0005 236.5232 0002268 263.2924  96.8013 15.69930797 13045,6737.232,91.724,360.625,357.569,0.0
55407.0,STARLINK-5019,PAYLOAD,2023-04-17 18:13:37,15.69903914,0.0002639,70.0003,235.8068,280.5818,79.508,-3.6684e-05,-4.616e-05,0.0,0 STARLINK-5019,1 55407U 23014S   23107.75946596 -.00004616  00000-0 -36684-4 0  9995,2 55407  70.0003 235.8068 0002639 280.5818  79.5080 15.69903914 12141,6737.309,91.725,360.952,357.396,0.0
55407.0,STARLINK-5019,PAYLOAD,2023-04-18 09:31:07,15.69908894,0.0003547,69.9983,234.0144,274.3248,85.7542,2.2476e-05,2.489e-05,0.0,0 STARLINK-5019,1 55407U 23014S   23108.39661766  .00002489  00000-0  22476-4 0  9997,2 55407  69.9983 234.0144 0003547 274.3248  85.7542 15.69908894 12243,6737.295,91.725,361.549,356.77,0.0
55407.0,STARLINK-5019,PAYLOAD,2023-04-18 17:09:53,15.69918852,0.0003091,69.9986,233.1183,270.749,89.3352,1.1883e-05,1.216e-05,0.0,0 STARLINK-5019,1 55407U 23014S   23108.71519929  .00001216  00000-0  11883-4 0  9993,2 55407  69.9986 233.1183 0003091 270.7490  89.3352 15.69918852 12291,6737.266,91.724,361.214,357.049,0.0
55407.0,STARLINK-5019,PAYLOAD,2023-04-19 08:27:23,15.69929476,0.0003276,69.9978,231.3266,272.6404,87.4416,1.1452e-05,1.165e-05,0.0,0 STARLINK-5019,1 55407U 23014S   23109.35235964  .00001165  00000-0  11452-4 0  9993,2 55407  69.9978 231.3266 0003276 272.6404  87.4416 15.69929476 13335,6737.236,91.724,361.308,356.894,0.0
55407.0,STARLINK-5019,PAYLOAD,2023-04-19 16:06:09,15.69927043,0.0003176,69.9998,230.4323,270.4941,89.5891,9.854e-06,9.72e-06,0.0,0 STARLINK-5019,1 55407U 23014S   23109.67094522  .00000972  00000-0  98540-5 0  9990,2 55407  69.9998 230.4323 0003176 270.4941  89.5891 15.69927043 13385,6737.243,91.724,361.247,356.968,0.0
55407.0,STARLINK-5019,PAYLOAD,2023-04-20 01:16:40,15.69915122,0.0003473,69.998,229.3567,270.5441,89.5357,2.9642e-05,3.352e-05,0.0,0 STARLINK-5019,1 55407U 23014S   23110.05324962  .00003352  00000-0  29642-4 0  9999,2 55407  69.9980 229.3567 0003473 270.5441  89.5357 15.69915122 12504,6737.277,91.725,361.482,356.802,0.0
55407.0,STARLINK-5019,PAYLOAD,2023-04-20 08:55:26,15.69920582,0.0003247,69.9987,228.4621,269.2899,90.7925,8.7352e-06,8.38e-06,0.0,0 STARLINK-5019,1 55407U 23014S   23110.37183457  .00000838  00000-0  87352-5 0  9995,2 55407  69.9987 228.4621 0003247 269.2899  90.7925 15.69920582 13493,6737.261,91.724,361.314,356.939,0.0
55407.0,STARLINK-5019,PAYLOAD,2023-04-20 16:34:12,15.69914715,0.0003516,69.9982,227.5658,269.7641,90.3151,-1.3236e-06,-3.72e-06,0.0,0 STARLINK-5019,1 55407U 23014S   23110.69042420 -.00000372  00000-0 -13236-5 0  9999,2 55407  69.9982 227.5658 0003516 269.7641  90.3151 15.69914715 13541,6737.278,91.725,361.512,356.774,0.0
